[ {"name": "STARLINK-4286", "line1": "1 52990U 22076E   26108.75267230  .00001575  00000+0  11702-3 0  9992", "line2": "2 52990  53.2208 284.2715 0000820  97.9604 262.1482 15.08832378208753"}, {"name": "STARLINK-4285", "line1": "1 52991U 22076F   26108.74898707  .00000850  00000+0  71479-4 0  9994", "line2": "2 52991  53.2183 284.2850 0000953 108.9811 251.1284 15.08842367208753"}, {"name": "STARLINK-4269", "line1": "1 52992U 22076G   26108.74628477  .00001002  00000+0  81007-4 0  9998", "line2": "2 52992  53.2176 284.3099 0001343  96.1646 263.9499 15.08844588208756"}, {"name": "STARLINK-4256", "line1": "1 52994U 22076J   26108.17950929  .00000653  00000+0  59110-4 0  9998", "line2": "2 52994  53.2169 276.8430 0001384  87.1141 273.0009 15.08838603208806"}, {"name": "STARLINK-4296", "line1": "1 52995U 22076K   26108.83455132  .00000756  00000+0  65577-4 0  9996", "line2": "2 52995  53.2185 273.9019 0001474  90.2498 269.8663 15.08839089208905"}, {"name": "STARLINK-4295", "line1": "1 52996U 22076L   26108.86497609  .00001497  00000+0  11209-3 0  9990", "line2": "2 52996  53.2176 274.0475 0001489  94.0976 266.0186 15.08846922208906"}, {"name": "STARLINK-4254", "line1": "1 52998U 22076N   26108.62478131 -.00000112  00000+0  11043-4 0  9996", "line2": "2 52998  53.2181 274.7584 0001297  90.8339 269.2802 15.08833347208879"}, {"name": "STARLINK-4217", "line1": "1 52999U 22076P   26108.74989014  .00001812  00000+0  13183-3 0  9990", "line2": "2 52999  53.2165 274.2838 0001136  86.0621 274.0501 15.08852513208890"}, {"name": "STARLINK-4194", "line1": "1 53000U 22076Q   26108.83087162 -.00002960  00000+0 -16800-3 0  9993", "line2": "2 53000  53.2168 273.9209 0001276 100.6959 259.4177 15.08833500208900"}, {"name": "STARLINK-4190", "line1": "1 53001U 22076R   26108.74623118  .00004260  00000+0  28547-3 0  9995", "line2": "2 53001  53.2170 274.2985 0001288  86.0356 274.0783 15.08851084208891"}, {"name": "STARLINK-4121", "line1": "1 53002U 22076S   26108.76095155 -.00000006  00000+0  17720-4 0  9999", "line2": "2 53002  53.2172 274.2331 0001253  88.7893 271.3243 15.08834790208892"}, {"name": "STARLINK-4255", "line1": "1 53003U 22076T   26108.73888583  .00003257  00000+0  22266-3 0  9992", "line2": "2 53003  53.2171 274.3317 0001292  93.0227 267.0912 15.08830338208899"}, {"name": "STARLINK-4253", "line1": "1 53004U 22076U   26108.75358789  .00000350  00000+0  40067-4 0  9996", "line2": "2 53004  53.2173 274.2662 0001373  90.6681 269.4468 15.08840591208895"}, {"name": "STARLINK-4288", "line1": "1 53005U 22076V   26108.73518661  .00000497  00000+0  49295-4 0  9996", "line2": "2 53005  53.2165 274.3491 0001325  91.2687 268.8457 15.08843848208897"}, {"name": "STARLINK-4290", "line1": "1 53006U 22076W   26108.74254802  .00000321  00000+0  38225-4 0  9999", "line2": "2 53006  53.2169 274.3144 0001189  87.3741 272.7387 15.08840284208899"}, {"name": "STARLINK-4215", "line1": "1 53007U 22076X   26108.86030619  .00000461  00000+0  47075-4 0  9999", "line2": "2 53007  53.2178 273.7877 0001404  98.2917 261.8234 15.08842057208915"}, {"name": "STARLINK-4275", "line1": "1 53008U 22076Y   26108.73150500  .00000411  00000+0  43925-4 0  9993", "line2": "2 53008  53.2175 274.3570 0001330  88.3862 271.7282 15.08841215208892"}, {"name": "STARLINK-4277", "line1": "1 53009U 22076Z   26108.84651404  .00000099  00000+0  24313-4 0  9997", "line2": "2 53009  53.2173 263.8491 0001192  91.9761 268.1367 15.08838089209047"}, {"name": "STARLINK-4263", "line1": "1 53010U 22076AA  26108.83819794  .00000410  00000+0  43830-4 0  9998", "line2": "2 53010  53.2175 273.6156 0001332  92.2500 267.8645 15.08838363208914"}, {"name": "STARLINK-4265", "line1": "1 53011U 22076AB  26108.84282720 -.00000170  00000+0  73932-5 0  9994", "line2": "2 53011  53.2169 263.8655 0001209  88.9799 271.1332 15.08838479209042"}, {"name": "STARLINK-4271", "line1": "1 53012U 22076AC  26108.72414950 -.00002168  00000+0 -11813-3 0  9992", "line2": "2 53012  53.2171 274.3963 0001050 121.5790 238.5304 15.08844972208897"}, {"name": "STARLINK-4177", "line1": "1 53013U 22076AD  26108.83547389  .00000905  00000+0  74908-4 0  9998", "line2": "2 53013  53.2169 263.8979 0001353 110.9189 249.1948 15.08853387209045"}, {"name": "STARLINK-4183", "line1": "1 53014U 22076AE  26108.85020058  .00000992  00000+0  80390-4 0  9998", "line2": "2 53014  53.2171 263.8323 0001354  78.2716 281.8428 15.08841360209049"}, {"name": "STARLINK-4262", "line1": "1 53015U 22076AF  26108.82810597  .00000974  00000+0  79258-4 0  9992", "line2": "2 53015  53.2167 263.9312 0001248  92.6362 267.4773 15.08845637209047"}, {"name": "STARLINK-4283", "line1": "1 53016U 22076AG  26108.83914777  .00000185  00000+0  29710-4 0  9991", "line2": "2 53016  53.2170 263.8816 0001289  93.2269 266.8870 15.08842149209044"}, {"name": "STARLINK-4281", "line1": "1 53017U 22076AH  26108.83334491  .00406526  00000+0  17793-1 0  9995", "line2": "2 53017  53.2195 263.2228 0001346  74.3653 329.6383 15.19693931  5860"}, {"name": "STARLINK-4279", "line1": "1 53018U 22076AJ  26108.83334491  .00090445  00000+0  42240-2 0  9991", "line2": "2 53018  53.2190 263.2723 0001510  68.6267 245.2114 15.19062837  5877"}, {"name": "STARLINK-4282", "line1": "1 53019U 22076AK  26108.68458929  .00001024  00000+0  82410-4 0  9998", "line2": "2 53019  53.2174 264.5768 0001255  91.4458 268.6678 15.08841986209020"}, {"name": "STARLINK-4287", "line1": "1 53020U 22076AL  26108.83180149  .00001077  00000+0  85715-4 0  9992", "line2": "2 53020  53.2179 263.9145 0001133  95.5553 264.5569 15.08844886209043"}, {"name": "STARLINK-4216", "line1": "1 53022U 22076AN  26108.82074664  .00001172  00000+0  91671-4 0  9991", "line2": "2 53022  53.2183 263.9637 0001199  91.3031 268.8099 15.08844549209044"}, {"name": "STARLINK-4284", "line1": "1 53023U 22076AP  26108.73611021  .00000471  00000+0  47670-4 0  9997", "line2": "2 53023  53.2166 264.3358 0001296  92.0909 268.0231 15.08839100209037"}, {"name": "STARLINK-4289", "line1": "1 53024U 22076AQ  26108.60731171  .00001045  00000+0  83717-4 0  9993", "line2": "2 53024  53.2179 264.9239 0001335  92.0757 268.0388 15.08839308209012"}, {"name": "STARLINK-4218", "line1": "1 53025U 22076AR  26108.73244747  .00000353  00000+0  40281-4 0  9996", "line2": "2 53025  53.2181 264.3606 0001303  89.5032 270.6110 15.08832098209033"}, {"name": "STARLINK-4119", "line1": "1 53026U 22076AS  26108.60457542 -.00002331  00000+0 -12837-3 0  9997", "line2": "2 53026  53.2175 264.8283 0001401  78.6288 281.4861 15.08842014209014"}, {"name": "STARLINK-4158", "line1": "1 53027U 22076AT  26108.72138006 -.00000176  00000+0  71184-5 0  9998", "line2": "2 53027  53.2168 264.4034 0003376  98.7453 261.3921 15.08845077209035"}, {"name": "STARLINK-4143", "line1": "1 53029U 22076AV  26108.70759134  .00000205  00000+0  30997-4 0  9997", "line2": "2 53029  53.2178 254.4728 0001255  73.2625 286.8504 15.08837425209161"}, {"name": "STARLINK-4160", "line1": "1 53030U 22076AW  26108.81341072  .00000177  00000+0  29210-4 0  9993", "line2": "2 53030  53.2169 264.1916 0001280  90.7061 269.4078 15.08840748209048"}, {"name": "STARLINK-4137", "line1": "1 53031U 22076AX  26108.82903154  .00000474  00000+0  47861-4 0  9992", "line2": "2 53031  53.2172 253.9280 0001287  90.0720 270.0420 15.08837797209189"}, {"name": "STARLINK-4115", "line1": "1 53032U 22076AY  26108.72506770  .00000398  00000+0  43104-4 0  9996", "line2": "2 53032  53.2168 264.3960 0001238  89.9640 270.1494 15.08838951209039"}, {"name": "STARLINK-4167", "line1": "1 53033U 22076AZ  26108.83271142  .00000310  00000+0  37597-4 0  9994", "line2": "2 53033  53.2180 253.9119 0001276  88.3051 271.8087 15.08837362209182"}, {"name": "STARLINK-4151", "line1": "1 53034U 22076BA  26108.84103257  .00001417  00000+0  10709-3 0  9991", "line2": "2 53034  53.2168 253.9225 0001258  86.8594 273.2542 15.08839452209186"}, {"name": "STARLINK-4157", "line1": "1 53035U 22076BB  26108.82534961  .00000456  00000+0  46748-4 0  9995", "line2": "2 53035  53.2178 253.9435 0001206  85.9425 274.1705 15.08836797209187"}, {"name": "STARLINK-4155", "line1": "1 53036U 22076BC  26108.82166882 -.00000818  00000+0 -33299-4 0  9990", "line2": "2 53036  53.2171 253.9600 0001207  86.8089 273.3041 15.08845720209182"}, {"name": "STARLINK-4153", "line1": "1 53037U 22076BD  26108.81798727  .00000016  00000+0  19093-4 0  9993", "line2": "2 53037  53.2173 253.9759 0001099  87.6848 272.4270 15.08839337209182"}, {"name": "STARLINK-4156", "line1": "1 53038U 22076BE  26108.81430664 -.00000019  00000+0  16909-4 0  9994", "line2": "2 53038  53.2170 253.9924 0001284  91.4311 268.6828 15.08840410209188"}, {"name": "STARLINK-4362", "line1": "1 53043U 22077A   26108.78540794 -.00000258  00000+0 -13648-4 0  9996", "line2": "2 53043  97.6037 289.5822 0000934  80.6310 279.5022 15.05642266206944"}, {"name": "STARLINK-4349", "line1": "1 53044U 22077B   26108.85855512  .00520313  12890-3  79134-3 0  9994", "line2": "2 53044  97.5765 303.8488 0005112 150.5204 209.6365 16.04487988207866"}, {"name": "STARLINK-4350", "line1": "1 53045U 22077C   26108.73971105 -.00003088  00000+0 -21001-3 0  9992", "line2": "2 53045  97.6020 290.6956 0001863  89.6441 270.4999 15.05627683207013"}, {"name": "STARLINK-4331", "line1": "1 53046U 22077D   26108.76461218 -.00000080  00000+0 -13133-5 0  9993", "line2": "2 53046  97.6022 290.8141 0001700  91.7577 268.3845 15.05648153207020"}, {"name": "STARLINK-4352", "line1": "1 53047U 22077E   26108.75217696 -.00000129  00000+0 -47222-5 0  9992", "line2": "2 53047  97.6019 289.6072 0001462  96.5636 263.5757 15.05647065206940"}, {"name": "STARLINK-4355", "line1": "1 53048U 22077F   26108.46000684  .00000206  00000+0  18497-4 0  9993", "line2": "2 53048  97.6029 290.4477 0001357  88.0139 272.1243 15.05649484206963"}, {"name": "STARLINK-4345", "line1": "1 53049U 22077G   26108.76325111  .00000446  00000+0  35121-4 0  9991", "line2": "2 53049  97.6018 289.5813 0001710  87.6927 272.4495 15.05647955206938"}]